{
  "norad_id": 68721,
  "name": "STARLINK-36680",
  "history": [
    {
      "epoch": "2026-04-23T12:20:49.743168Z",
      "apogee_km": 310.18447120270866,
      "perigee_km": 309.47487793853725,
      "latitude_deg": 5.024642897188423e-05,
      "longitude_deg": 159.3664734340746,
      "height_km": 311.01829509790747,
      "semi_major_axis_km": 6687.966674570623,
      "eccentricity": 5.305e-05,
      "inclination_deg": 53.16,
      "raan_deg": 196.1343,
      "arg_perigee_deg": 221.3436,
      "mean_anomaly_deg": 138.755,
      "mean_motion_rev_day": 15.87309485
    }
  ]
}